OBJECT_NAME,OBJECT_ID,EPOCH,MEAN_MOTION,ECCENTRICITY,INCLINATION,RA_OF_ASC_NODE,ARG_OF_PERICENTER,MEAN_ANOMALY,EPHEMERIS_TYPE,CLASSIFICATION_TYPE,NORAD_CAT_ID,ELEMENT_SET_NO,REV_AT_EPOCH,BSTAR,MEAN_MOTION_DOT,MEAN_MOTION_DDOT
NETSAT-4,2020-068U,2026-07-18T11:37:48.258048,15.44824572,.00051455,97.8607,210.2643,181.7593,178.3637,0,U,46504,999,32060,.19939976E-3,.925E-4,0
NETSAT-3,2020-068V,2026-07-18T18:34:08.200128,15.43682785,.0004286,97.8660,208.7553,195.7035,164.4079,0,U,46505,999,32055,.22205E-3,.9919E-4,0
NETSAT-1,2020-068W,2026-07-18T18:02:43.621728,15.35293523,.0002647,97.8760,202.6825,241.4202,118.6774,0,U,46506,999,32014,.19126E-3,.6465E-4,0
NETSAT-2,2020-068X,2026-07-18T20:47:34.120032,15.47264654,.0002684,97.8620,210.6948,193.3094,166.8084,0,U,46507,999,32063,.26559E-3,.13436E-3,0
TIANQI-6,2020-076D,2026-07-18T17:35:39.153120,15.07363026,.0009513,34.9975,214.8281,88.3650,271.8149,0,U,46810,999,31334,.93379E-4,.1412E-4,0
KSM1-C,2020-081B,2026-07-18T09:57:31.325760,15.27202479,.00015338,36.8936,226.0829,151.1009,208.9825,0,U,46906,999,31394,.15119179E-3,.4029E-4,0
KSM1-D,2020-081C,2026-07-18T11:00:37.039392,15.25121767,.00033481,36.8949,235.4338,175.8894,184.1883,0,U,46907,999,31387,.13436765E-3,.3347E-4,0
KSM1-A,2020-081H,2026-07-18T11:59:47.114304,15.26397830,.0003815,36.8943,228.1925,225.5721,134.4717,0,U,46912,999,31396,.14675552E-3,.3812E-4,0
R2,2020-081J,2026-07-18T19:03:36.979200,15.25846573,.0008499,36.8964,226.5234,197.8594,162.1857,0,U,46913,999,31681,.13677E-3,.3488E-4,0
KSM1-B,2020-081K,2026-07-18T11:11:56.120928,15.24905557,.00053958,36.9000,236.0669,191.8340,168.2283,0,U,46914,999,31696,.13724184E-3,.3398E-4,0
GONETS-M 20,2020-091A,2026-07-18T21:11:09.630240,12.42894704,.0022189,82.5047,282.7355,111.3261,249.0190,0,U,47227,999,25501,.32199E-3,.55E-6,0
GONETS-M 21,2020-091B,2026-07-18T20:33:45.373824,12.42887513,.0015941,82.4970,281.4393,124.4976,235.7611,0,U,47228,999,25500,.73104E-4,.2E-6,0
GONETS-M 22,2020-091C,2026-07-18T19:54:48.728160,12.42893474,.0023051,82.5028,282.3694,106.9462,253.4147,0,U,47229,999,25495,-.53545E-3,-.64E-6,0
CUBEL,2021-006AM,2026-07-18T13:49:27.865344,15.42081249,.0007741,97.2307,249.8803,73.0228,287.1867,0,U,47448,999,30459,.24859E-3,.10552E-3,0
ARKTIKA-M 1,2021-016A,2026-07-14T09:46:38.558208,2.00611590,.7297332,63.2662,53.6722,270.0591,14.4994,0,U,47719,999,3933,0,-.301E-5,0
STARLINK-2342,2021-021Z,2026-07-18T20:00:01.999008,15.94755624,.0010339,53.1506,347.9327,307.3715,345.9271,0,U,47883,999,595,.78583E-3,.307198E-2,.48003E-4
GRUS-1B,2021-022C,2026-07-18T19:44:19.013856,14.98783818,.0014505,97.5333,81.9637,203.6394,156.4165,0,U,47934,999,29063,.90597E-4,.1036E-4,0
2021-022F,2021-022F,2026-07-18T21:38:39.043392,15.33506854,.0009,97.3850,100.5762,352.3412,7.7691,0,U,47937,999,29457,.13947E-3,.4442E-4,0
UNISAT-7,2021-022P,2026-07-18T17:17:04.839360,15.41255120,.0007346,97.3846,104.9868,334.1532,25.9346,0,U,47945,999,29471,.18487E-3,.7607E-4,0
GLOBAL-9,2021-023G,2026-07-18T16:42:55.726848,15.47700222,.0003901,44.9812,73.2676,192.5157,167.5637,0,U,47971,999,29982,.22177E-3,.11382E-3,0
AII-BRAVO,2021-034C,2026-07-18T16:46:15.142368,15.03688198,.000662,97.5601,253.8914,150.3258,209.8344,0,U,48270,999,28435,.18788E-3,.2515E-4,0
TYVAK-182A,2021-034D,2026-07-18T16:26:15.983808,15.06420622,.0005097,97.5706,258.0581,204.8540,155.2443,0,U,48271,999,28457,.12288E-3,.175E-4,0
CSS (TIANHE),2021-035A,2026-07-18T20:50:29.010048,15.58184623,.0002055,41.4683,129.5686,305.4241,54.6405,0,U,48274,999,29811,.15417E-3,.11657E-3,0
TYVAK-0130,2021-041BF,2026-07-18T12:15:51.013440,15.27965584,.00084122,52.9945,240.5693,271.8703,88.1331,0,U,48606,999,28517,.13308272E-3,.3331E-4,0
HAIYANG-2D,2021-043A,2026-07-18T21:14:52.727136,13.83373984,.0011614,65.9962,225.7827,265.4085,94.5656,0,U,48621,999,26093,-.41657E-5,-.86E-6,0
2021-050D,2021-050D,2026-07-18T20:42:09.286272,15.23615229,.000669,97.3323,275.1811,141.2876,218.8842,0,U,48843,999,28378,.11307E-3,.2639E-4,0
TYVAK-0173,2021-059P,2026-07-18T17:32:00.236256,14.81976848,.0007104,96.0070,268.2460,284.7600,75.2831,0,U,48892,999,27291,.90248E-4,.684E-5,0
MANDRAKE 2 ABLE,2021-059AE,2026-07-18T12:00:55.251072,15.56162732,.00040088,97.7029,31.7017,218.4556,141.6413,0,U,48907,999,28199,.19511073E-3,.13548E-3,0
MANDRAKE 2 BAKER,2021-059AF,2026-07-18T12:42:09.299520,15.61089120,.00029859,97.6991,34.8300,204.5495,155.5620,0,U,48908,999,28218,.20762089E-3,.17376E-3,0
