{"_default": { "162": {"norad_id": "46506", "name": "NETSAT-1", "tle1": "1 46506U 20068W   26199.75189377  .00006465  00000-0  19126-3 0  9994", "tle2": "2 46506  97.8760 202.6825 0002647 241.4202 118.6774 15.35293523320141", "object_type": "PAYLOAD", "criticality_score": 9.0, "last_updated": "2026-07-19T02:53:59.007202+00:00", "maneuver_count": 0, "owner": "GER"}, "163": {"norad_id": "46507", "name": "NETSAT-2", "tle1": "1 46507U 20068X   26199.86636713  .00013436  00000-0  26559-3 0  9992", "tle2": "2 46507  97.8620 210.6948 0002684 193.3094 166.8084 15.47264654320636", "object_type": "PAYLOAD", "criticality_score": 9.0, "last_updated": "2026-07-19T02:53:59.007202+00:00", "maneuver_count": 0, "owner": "GER"}, "164": {"norad_id": "46505", "name": "NETSAT-3", "tle1": "1 46505U 20068V   26199.77370602  .00009919  00000-0  22205-3 0  9997", "tle2": "2 46505  97.8660 208.7553 0004286 195.7035 164.4079 15.43682785320553", "object_type": "PAYLOAD", "criticality_score": 9.0, "last_updated": "2026-07-19T02:53:59.007202+00:00", "maneuver_count": 0, "owner": "GER"}, "165": {"norad_id": "46504", "name": "NETSAT-4", "tle1": "1 46504U 20068U   26199.48458632  .00009250  00000-0  19940-3 0  9994", "tle2": "2 46504  97.8607 210.2643 0005146 181.7593 178.3637 15.44824572320604", "object_type": "PAYLOAD", "criticality_score": 9.0, "last_updated": "2026-07-19T02:53:59.007202+00:00", "maneuver_count": 0, "owner": "GER"}, "203": {"norad_id": "47448", "name": "CUBEL", "tle1": "1 47448U 21006AM  26199.57601696  .00010552  00000-0  24859-3 0  9997", "tle2": "2 47448  97.2307 249.8803 0007741  73.0228 287.1867 15.42081249304598", "object_type": "PAYLOAD", "criticality_score": 9.0, "last_updated": "2026-07-19T02:53:59.007202+00:00", "maneuver_count": 0, "owner": "GER"}, "205": {"norad_id": "47945", "name": "UNISAT 7", "tle1": "1 47945U 21022P   26199.72019490  .00007607  00000-0  18487-3 0  9996", "tle2": "2 47945  97.3846 104.9868 0007346 334.1532  25.9346 15.41255120294713", "object_type": "PAYLOAD", "criticality_score": 9.0, "last_updated": "2026-07-19T02:53:59.007202+00:00", "maneuver_count": 0, "owner": "IT"}, "206": {"norad_id": "47937", "name": "OBJECT F", "tle1": "1 47937U 21022F   26199.90184078  .00004442  00000-0  13947-3 0  9992", "tle2": "2 47937  97.3850 100.5762 0009000 352.3412   7.7691 15.33506854294571", "object_type": "PAYLOAD", "criticality_score": 9.0, "last_updated": "2026-07-19T02:53:59.007202+00:00", "maneuver_count": 0, "owner": "TBD"}, "211": {"norad_id": "48274", "name": "CSS (TIANHE-1)", "tle1": "1 48274U 21035A   26199.86839132  .00011657  00000-0  15417-3 0  9994", "tle2": "2 48274  41.4683 129.5686 0002055 305.4241  54.6405 15.58184623298119", "object_type": "PAYLOAD", "criticality_score": 9.0, "last_updated": "2026-07-19T02:53:59.007202+00:00", "maneuver_count": 0, "owner": "PRC"}, "238": {"norad_id": "46810", "name": "TIANQI-6", "tle1": "1 46810U 20076D   26199.73309205  .00001412  00000-0  93379-4 0  9993", "tle2": "2 46810  34.9975 214.8281 0009513  88.3650 271.8149 15.07363026313341", "object_type": "PAYLOAD", "criticality_score": 9.0, "last_updated": "2026-07-19T02:53:59.007202+00:00", "maneuver_count": 0, "owner": "PRC"}, "247": {"norad_id": "48892", "name": "TYVAK-0173", "tle1": "1 48892U 21059P   26199.73055829  .00000684  00000-0  90248-4 0  9999", "tle2": "2 48892  96.0070 268.2460 0007104 284.7600  75.2831 14.81976848272915", "object_type": "PAYLOAD", "criticality_score": 7.0, "last_updated": "2026-07-19T02:53:59.007202+00:00", "maneuver_count": 0, "owner": "AUS"}, "249": {"norad_id": "48907", "name": "MANDRAKE 2 ABLE", "tle1": "1 48907U 21059AE  26199.50063948  .00013548  00000-0  19511-3 0  9998", "tle2": "2 48907  97.7029  31.7017 0004009 218.4556 141.6413 15.56162732281994", "object_type": "PAYLOAD", "criticality_score": 7.0, "last_updated": "2026-07-19T02:53:59.007202+00:00", "maneuver_count": 0, "owner": "US"}, "250": {"norad_id": "48606", "name": "TYVAK-0130", "tle1": "1 48606U 21041BF  26199.51100710  .00003331  00000-0  13308-3 0  9992", "tle2": "2 48606  52.9945 240.5693 0008412 271.8703  88.1331 15.27965584285171", "object_type": "PAYLOAD", "criticality_score": 9.0, "last_updated": "2026-07-19T02:53:59.007202+00:00", "maneuver_count": 0, "owner": "US"}, "251": {"norad_id": "48271", "name": "TYVAK-182A", "tle1": "1 48271U 21034D   26199.68490722  .00001750  00000-0  12288-3 0  9994", "tle2": "2 48271  97.5706 258.0581 0005097 204.8540 155.2443 15.06420622284579", "object_type": "PAYLOAD", "criticality_score": 9.0, "last_updated": "2026-07-19T02:53:59.007202+00:00", "maneuver_count": 0, "owner": "IT"}, "252": {"norad_id": "48908", "name": "MANDRAKE 2 BAKER", "tle1": "1 48908U 21059AF  26199.52927430  .00017376  00000-0  20762-3 0  9999", "tle2": "2 48908  97.6991  34.8300 0002986 204.5495 155.5620 15.61089120282182", "object_type": "PAYLOAD", "criticality_score": 7.0, "last_updated": "2026-07-19T02:53:59.007202+00:00", "maneuver_count": 0, "owner": "US"}, "277": {"norad_id": "48270", "name": "AII-BRAVO", "tle1": "1 48270U 21034C   26199.69878637  .00002515  00000-0  18788-3 0  9990", "tle2": "2 48270  97.5601 253.8914 0006620 150.3258 209.8344 15.03688198284352", "object_type": "PAYLOAD", "criticality_score": 9.0, "last_updated": "2026-07-19T02:53:59.007202+00:00", "maneuver_count": 0, "owner": "LTU"}, "300": {"norad_id": "47883", "name": "STARLINK-2342", "tle1": "1 47883U 21021Z   26199.83335647  .00307198  48003-4  78583-3 0  9993", "tle2": "2 47883  53.1506 347.9327 0010339 307.3715 345.9271 15.94755624  5957", "object_type": "PAYLOAD", "criticality_score": 9.0, "last_updated": "2026-07-19T02:53:59.007202+00:00", "maneuver_count": 0, "owner": "US"}, "335": {"norad_id": "46912", "name": "KSM1-A", "tle1": "1 46912U 20081H   26199.49985086  .00003812  00000-0  14676-3 0  9990", "tle2": "2 46912  36.8943 228.1925 0003815 225.5721 134.4717 15.26397830313960", "object_type": "PAYLOAD", "criticality_score": 9.0, "last_updated": "2026-07-19T02:53:59.007202+00:00", "maneuver_count": 0, "owner": "LUXE"}, "336": {"norad_id": "46914", "name": "KSM1-B", "tle1": "1 46914U 20081K   26199.46662177  .00003398  00000-0  13724-3 0  9994", "tle2": "2 46914  36.9000 236.0669 0005396 191.8340 168.2283 15.24905557316963", "object_type": "PAYLOAD", "criticality_score": 9.0, "last_updated": "2026-07-19T02:53:59.007202+00:00", "maneuver_count": 0, "owner": "LUXE"}, "337": {"norad_id": "46906", "name": "KSM1-C", "tle1": "1 46906U 20081B   26199.41494590  .00004029  00000-0  15119-3 0  9994", "tle2": "2 46906  36.8936 226.0829 0001534 151.1009 208.9825 15.27202479313944", "object_type": "PAYLOAD", "criticality_score": 9.0, "last_updated": "2026-07-19T02:53:59.007202+00:00", "maneuver_count": 0, "owner": "LUXE"}, "346": {"norad_id": "46907", "name": "KSM1-D", "tle1": "1 46907U 20081C   26199.45876203  .00003347  00000-0  13437-3 0  9997", "tle2": "2 46907  36.8949 235.4338 0003348 175.8894 184.1883 15.25121767313877", "object_type": "PAYLOAD", "criticality_score": 9.0, "last_updated": "2026-07-19T02:53:59.007202+00:00", "maneuver_count": 0, "owner": "LUXE"}, "364": {"norad_id": "47719", "name": "ARKTIKA-M 1", "tle1": "1 47719U 21016A   26195.40739072 -.00000301  00000-0  00000-0 0  9998", "tle2": "2 47719  63.2662  53.6722 7297332 270.0591  14.4994  2.00611590 39330", "object_type": "PAYLOAD", "criticality_score": 9.0, "last_updated": "2026-07-19T02:53:59.007202+00:00", "maneuver_count": 0, "owner": "CIS"}, "438": {"norad_id": "48621", "name": "HAIYANG 2D", "tle1": "1 48621U 21043A   26199.88533249 -.00000086  00000-0 -41657-5 0  9994", "tle2": "2 48621  65.9962 225.7827 0011614 265.4085  94.5656 13.83373984260930", "object_type": "PAYLOAD", "criticality_score": 9.0, "last_updated": "2026-07-19T02:53:59.007202+00:00", "maneuver_count": 0, "owner": "PRC"}, "446": {"norad_id": "46913", "name": "R2", "tle1": "1 46913U 20081J   26199.79417800  .00003488  00000-0  13677-3 0  9997", "tle2": "2 46913  36.8964 226.5234 0008499 197.8594 162.1857 15.25846573316813", "object_type": "PAYLOAD", "criticality_score": 9.0, "last_updated": "2026-07-19T02:53:59.007202+00:00", "maneuver_count": 0, "owner": "LTU"}, "448": {"norad_id": "47971", "name": "GLOBAL-9", "tle1": "1 47971U 21023G   26199.69647832  .00011382  00000-0  22177-3 0  9995", "tle2": "2 47971  44.9812  73.2676 0003901 192.5157 167.5637 15.47700222299827", "object_type": "PAYLOAD", "criticality_score": 9.0, "last_updated": "2026-07-19T02:53:59.007202+00:00", "maneuver_count": 0, "owner": "US"}, "540": {"norad_id": "47934", "name": "GRUS-1B", "tle1": "1 47934U 21022C   26199.82244229  .00001036  00000-0  90597-4 0  9998", "tle2": "2 47934  97.5333  81.9637 0014505 203.6394 156.4165 14.98783818290630", "object_type": "PAYLOAD", "criticality_score": 9.0, "last_updated": "2026-07-19T02:53:59.007202+00:00", "maneuver_count": 0, "owner": "JPN"}, "568": {"norad_id": "48843", "name": "OBJECT D", "tle1": "1 48843U 21050D   26199.86260748  .00002639  00000-0  11307-3 0  9998", "tle2": "2 48843  97.3323 275.1811 0006690 141.2876 218.8842 15.23615229283788", "object_type": "PAYLOAD", "criticality_score": 9.0, "last_updated": "2026-07-19T02:53:59.007202+00:00", "maneuver_count": 0, "owner": "PRC"}, "617": {"norad_id": "47227", "name": "GONETS M 20", "tle1": "1 47227U 20091A   26199.88275035  .00000055  00000-0  32199-3 0  9996", "tle2": "2 47227  82.5047 282.7355 0022189 111.3261 249.0190 12.42894704255018", "object_type": "PAYLOAD", "criticality_score": 9.0, "last_updated": "2026-07-19T02:53:59.007202+00:00", "maneuver_count": 0, "owner": "CIS"}, "618": {"norad_id": "47228", "name": "GONETS M 21", "tle1": "1 47228U 20091B   26199.85677516  .00000020  00000-0  73104-4 0  9998", "tle2": "2 47228  82.4970 281.4393 0015941 124.4976 235.7611 12.42887513255006", "object_type": "PAYLOAD", "criticality_score": 9.0, "last_updated": "2026-07-19T02:53:59.007202+00:00", "maneuver_count": 0, "owner": "CIS"}, "619": {"norad_id": "47229", "name": "GONETS M 22", "tle1": "1 47229U 20091C   26199.82973065 -.00000064  00000-0 -53545-3 0  9990", "tle2": "2 47229  82.5028 282.3694 0023051 106.9462 253.4147 12.42893474254959", "object_type": "PAYLOAD", "criticality_score": 9.0, "last_updated": "2026-07-19T02:53:59.007202+00:00", "maneuver_count": 0, "owner": "CIS"}}}